FENGYUN 1C DEB          
1 30374U 99025ACM 17345.77741587  .00000937  00000-0  34116-3 0  9995
2 30374  99.2631 279.1147 0060828  89.2269 337.4928 14.34724088568310
